$$SOE
2461295.500000000, A.D. 2026-Sep-12 00:00:00.0000, 1.320561611406715E+08, -4.784344855948586E+08, 4.018204893735242E+07,
2461302.500000000, A.D. 2026-Sep-19 00:00:00.0000, 1.413620225784616E+08, -4.763278035302594E+08, 3.810234796052560E+07,
2461309.500000000, A.D. 2026-Sep-26 00:00:00.0000, 1.506124485859177E+08, -4.740342893617348E+08, 3.600769870127839E+07,
2461316.500000000, A.D. 2026-Oct-03 00:00:00.0000, 1.598039397620944E+08, -4.715552552879212E+08, 3.389895416011611E+07,
2461323.500000000, A.D. 2026-Oct-10 00:00:00.0000, 1.689330340234752E+08, -4.688920758589171E+08, 3.177696873007545E+07,
2461330.500000000, A.D. 2026-Oct-17 00:00:00.0000, 1.779963073487768E+08, -4.660461869037497E+08, 2.964259791195711E+07,
2461337.500000000, A.D. 2026-Oct-24 00:00:00.0000, 1.869903744852152E+08, -4.630190845556857E+08, 2.749669802739173E+07,
2461344.500000000, A.D. 2026-Oct-31 00:00:00.0000, 1.959118897159203E+08, -4.598123244420701E+08, 2.534012591517699E+07,
2461351.500000000, A.D. 2026-Nov-07 00:00:00.0000, 2.047575480287381E+08, -4.564275209651390E+08, 2.317373858596236E+07,
2461358.500000000, A.D. 2026-Nov-14 00:00:00.0000, 2.135240868883229E+08, -4.528663457874820E+08, 2.099839288962883E+07,
2461365.500000000, A.D. 2026-Nov-21 00:00:00.0000, 2.222082868001913E+08, -4.491305248412718E+08, 1.881494541747439E+07,
2461372.500000000, A.D. 2026-Nov-28 00:00:00.0000, 2.308069696687009E+08, -4.452218368691829E+08, 1.662425248496625E+07,
2461379.500000000, A.D. 2026-Dec-05 00:00:00.0000, 2.393169985692343E+08, -4.411421141527268E+08, 1.442716980949494E+07,
2461386.500000000, A.D. 2026-Dec-12 00:00:00.0000, 2.477352791008446E+08, -4.368932423174499E+08, 1.222455212248886E+07,
2461393.500000000, A.D. 2026-Dec-19 00:00:00.0000, 2.560587604331107E+08, -4.324771592094424E+08, 1.001725288977191E+07,
2461400.500000000, A.D. 2026-Dec-26 00:00:00.0000, 2.642844359054796E+08, -4.278958537118098E+08, 7.806124082454622E+06,
2461407.500000000, A.D. 2027-Jan-02 00:00:00.0000, 2.724093434553301E+08, -4.231513646925312E+08, 5.592015957546443E+06,
2461414.500000000, A.D. 2027-Jan-09 00:00:00.0000, 2.804305659916931E+08, -4.182457800640396E+08, 3.375776839234501E+06,
2461421.500000000, A.D. 2027-Jan-16 00:00:00.0000, 2.883452317493743E+08, -4.131812359460883E+08, 1.158252898261756E+06,
2461428.500000000, A.D. 2027-Jan-23 00:00:00.0000, 2.961505146685550E+08, -4.079599159716139E+08, -1.059712078183383E+06,
2461435.500000000, A.D. 2027-Jan-30 00:00:00.0000, 3.038436349867222E+08, -4.025840507832906E+08, -3.277276947347164E+06,
2461442.500000000, A.D. 2027-Feb-06 00:00:00.0000, 3.114218604673814E+08, -3.970559173810216E+08, -5.493603513880104E+06,
2461449.500000000, A.D. 2027-Feb-13 00:00:00.0000, 3.188825078048955E+08, -3.913778371017954E+08, -7.707856733142674E+06,
2461456.500000000, A.D. 2027-Feb-20 00:00:00.0000, 3.262229418407124E+08, -3.855521730238730E+08, -9.919204662949800E+06,
2461463.500000000, A.D. 2027-Feb-27 00:00:00.0000, 3.334405739857694E+08, -3.795813300085868E+08, -1.212681855480650E+07,
2461470.500000000, A.D. 2027-Mar-06 00:00:00.0000, 3.405328628672441E+08, -3.734677554563699E+08, -1.432987320469688E+07,
2461477.500000000, A.D. 2027-Mar-13 00:00:00.0000, 3.474973156004539E+08, -3.672139387277215E+08, -1.652754724945526E+07,
2461484.500000000, A.D. 2027-Mar-20 00:00:00.0000, 3.543314885574341E+08, -3.608224100642754E+08, -1.871902337362298E+07,
2461491.500000000, A.D. 2027-Mar-27 00:00:00.0000, 3.610329878349904E+08, -3.542957395593148E+08, -2.090348849046059E+07,
2461498.500000000, A.D. 2027-Apr-03 00:00:00.0000, 3.675994696257812E+08, -3.476365362258653E+08, -2.308013391989054E+07,
2461505.500000000, A.D. 2027-Apr-10 00:00:00.0000, 3.740286405540041E+08, -3.408474471397124E+08, -2.524815556733763E+07,
2461512.500000000, A.D. 2027-Apr-17 00:00:00.0000, 3.803182579975128E+08, -3.339311566718199E+08, -2.740675410685821E+07,
2461519.500000000, A.D. 2027-Apr-24 00:00:00.0000, 3.864661304747983E+08, -3.268903858717465E+08, -2.955513518103315E+07,
2461526.500000000, A.D. 2027-May-01 00:00:00.0000, 3.924701183959278E+08, -3.197278919727674E+08, -3.169250964287145E+07,
2461533.500000000, A.D. 2027-May-08 00:00:00.0000, 3.983281354855925E+08, -3.124464672687666E+08, -3.381809380673803E+07,
2461540.500000000, A.D. 2027-May-15 00:00:00.0000, 4.040381493832818E+08, -3.050489364091917E+08, -3.593110949313329E+07,
2461547.500000000, A.D. 2027-May-22 00:00:00.0000, 4.095981798580559E+08, -2.975381547041799E+08, -3.803078393581256E+07,
2461554.500000000, A.D. 2027-May-29 00:00:00.0000, 4.150062979943245E+08, -2.899170089079623E+08, -4.011634997913505E+07,
2461561.500000000, A.D. 2027-Jun-05 00:00:00.0000, 4.202606272344533E+08, -2.821884173486865E+08, -4.218704639093435E+07,
2461568.500000000, A.D. 2027-Jun-12 00:00:00.0000, 4.253593442717210E+08, -2.743553289734176E+08, -4.424211807157297E+07,
2461575.500000000, A.D. 2027-Jun-19 00:00:00.0000, 4.303006794630615E+08, -2.664207222437297E+08, -4.628081620525847E+07,
2461582.500000000, A.D. 2027-Jun-26 00:00:00.0000, 4.350829170411623E+08, -2.583876041431518E+08, -4.830239840056378E+07,
2461589.500000000, A.D. 2027-Jul-03 00:00:00.0000, 4.397043952582380E+08, -2.502590092878804E+08, -5.030612883150950E+07,
2461596.500000000, A.D. 2027-Jul-10 00:00:00.0000, 4.441635064985746E+08, -2.420379991317189E+08, -5.229127838177423E+07,
2461603.500000000, A.D. 2027-Jul-17 00:00:00.0000, 4.484586973963400E+08, -2.337276613038482E+08, -5.425712479842737E+07,
2461610.500000000, A.D. 2027-Jul-24 00:00:00.0000, 4.525884691149257E+08, -2.253311091418033E+08, -5.620295287451833E+07,
2461617.500000000, A.D. 2027-Jul-31 00:00:00.0000, 4.565513781991107E+08, -2.168514811832561E+08, -5.812805467882717E+07,
2461624.500000000, A.D. 2027-Aug-07 00:00:00.0000, 4.603460378001595E+08, -2.082919394640773E+08, -6.003172972016079E+07,
2461631.500000000, A.D. 2027-Aug-14 00:00:00.0000, 4.639711169741240E+08, -1.996556668764231E+08, -6.191328485598440E+07,
2461638.500000000, A.D. 2027-Aug-21 00:00:00.0000, 4.674253386713595E+08, -1.909458669516932E+08, -6.377203427713372E+07,
2461645.500000000, A.D. 2027-Aug-28 00:00:00.0000, 4.707074798470441E+08, -1.821657648643923E+08, -6.560729978487558E+07,
2461652.500000000, A.D. 2027-Sep-04 00:00:00.0000, 4.738163725113020E+08, -1.733186071534756E+08, -6.741841104750088E+07,
2461659.500000000, A.D. 2027-Sep-11 00:00:00.0000, 4.767509043239560E+08, -1.644076608218297E+08, -6.920470576269260E+07,
2461666.500000000, A.D. 2027-Sep-18 00:00:00.0000, 4.795100188673706E+08, -1.554362124633664E+08, -7.096552979125798E+07,
2461673.500000000, A.D. 2027-Sep-25 00:00:00.0000, 4.820927158265907E+08, -1.464075674944584E+08, -7.270023728986043E+07,
2461680.500000000, A.D. 2027-Oct-02 00:00:00.0000, 4.844980511523833E+08, -1.373250494612156E+08, -7.440819084776653E+07,
2461687.500000000, A.D. 2027-Oct-09 00:00:00.0000, 4.867251372303605E+08, -1.281919994263189E+08, -7.608876163049060E+07,
2461694.500000000, A.D. 2027-Oct-16 00:00:00.0000, 4.887731431199559E+08, -1.190117754897697E+08, -7.774132954107404E+07,
2461701.500000000, A.D. 2027-Oct-23 00:00:00.0000, 4.906412951231952E+08, -1.097877524487459E+08, -7.936528342363024E+07,
2461708.500000000, A.D. 2027-Oct-30 00:00:00.0000, 4.923288780576826E+08, -1.005233209851955E+08, -8.096002129377960E+07,
2461715.500000000, A.D. 2027-Nov-06 00:00:00.0000, 4.938352360712144E+08, -9.122188525170033E+07, -8.252495039730558E+07,
2461722.500000000, A.D. 2027-Nov-13 00:00:00.0000, 4.951597710142977E+08, -8.188686093177152E+07, -8.405948708512436E+07,
2461729.500000000, A.D. 2027-Nov-20 00:00:00.0000, 4.963019412723546E+08, -7.252167596087879E+07, -8.556305694956376E+07,
2461736.500000000, A.D. 2027-Nov-27 00:00:00.0000, 4.972612626741699E+08, -6.312977094300072E+07, -8.703509512790486E+07,
2461743.500000000, A.D. 2027-Dec-04 00:00:00.0000, 4.980373094531024E+08, -5.371459834788243E+07, -8.847504651292443E+07,
2461750.500000000, A.D. 2027-Dec-11 00:00:00.0000, 4.986297147108817E+08, -4.427962145265005E+07, -8.988236589883906E+07,
2461757.500000000, A.D. 2027-Dec-18 00:00:00.0000, 4.990381706589174E+08, -3.482831336682179E+07, -9.125651811559358E+07,
2461764.500000000, A.D. 2027-Dec-25 00:00:00.0000, 4.992624287884992E+08, -2.536415614278170E+07, -9.259697816544288E+07,
2461771.500000000, A.D. 2028-Jan-01 00:00:00.0000, 4.993023000103028E+08, -1.589063995673888E+07, -9.390323136408266E+07,
$$EOE